HAWK-11C                
1 62381U 24247E   26068.51221537  .00009223  00000+0  33290-3 0  9992
2 62381  45.0045 114.8762 0005900 329.7040  30.3502 15.28848020 67743
STARLINK-34206          
1 66098U 25236N   26068.38170772  .00027172  00000+0  92635-3 0  9990
2 66098  53.1580 105.5726 0001101  76.4635 283.6489 15.30194554 22880
